[
    {
        "CCSDS_OMM_VERS": "3.0",
        "COMMENT": "GENERATED VIA SPACE-TRACK.ORG API",
        "CREATION_DATE": "2025-04-12T03:00:55",
        "ORIGINATOR": "18 SPCS",
        "OBJECT_NAME": "GALILEO 29 (10C)",
        "OBJECT_ID": "2024-079A",
        "CENTER_NAME": "EARTH",
        "REF_FRAME": "TEME",
        "TIME_SYSTEM": "UTC",
        "MEAN_ELEMENT_THEORY": "SGP4",
        "EPOCH": "2025-04-11T16:26:06.118656",
        "MEAN_MOTION": "1.70474964",
        "ECCENTRICITY": "0.00030950",
        "INCLINATION": "54.8589",
        "RA_OF_ASC_NODE": "113.1495",
        "ARG_OF_PERICENTER": "258.0470",
        "MEAN_ANOMALY": "103.7264",
        "EPHEMERIS_TYPE": "0",
        "CLASSIFICATION_TYPE": "U",
        "NORAD_CAT_ID": "59598",
        "ELEMENT_SET_NO": "999",
        "REV_AT_EPOCH": "596",
        "BSTAR": "0.00000000000000",
        "MEAN_MOTION_DOT": "0.00000053",
        "MEAN_MOTION_DDOT": "0.0000000000000",
        "SEMIMAJOR_AXIS": "29600.208",
        "PERIOD": "844.699",
        "APOAPSIS": "23231.235",
        "PERIAPSIS": "23212.912",
        "OBJECT_TYPE": "PAYLOAD",
        "RCS_SIZE": "LARGE",
        "COUNTRY_CODE": "ESA",
        "LAUNCH_DATE": "2024-04-28",
        "SITE": "AFETR",
        "DECAY_DATE": null,
        "FILE": "4699215",
        "GP_ID": "285410126",
        "TLE_LINE0": "0 GALILEO 29 (10C)",
        "TLE_LINE1": "1 59598U 24079A   25101.68479304  .00000053  00000-0  00000-0 0  9996",
        "TLE_LINE2": "2 59598  54.8589 113.1495 0003095 258.0470 103.7264  1.70474964  5969"
    }
]